ONEWEB-0120             
1 47266U 20100J   25286.29682566  .00000261  00000+0  68901-3 0  9990
2 47266  87.8957  39.7301 0001863 100.8641 259.2698 13.12444425232347
ONEWEB-0121             
1 47267U 20100K   25286.28533329 -.00000002  00000+0 -42040-4 0  9994
2 47267  87.8956  39.6983 0001594 105.0950 255.0355 13.12445725232251
ONEWEB-0122             
1 47268U 20100L   25286.28031992 -.00000194  00000+0 -57536-3 0  9991
2 47268  87.8955  39.7021 0001800 105.0451 255.0877 13.12443720232163
ONEWEB-0123             
1 47269U 20100M   25286.27559838 -.00000293  00000+0 -85106-3 0  9999
2 47269  87.8956  39.7308 0001723  97.4241 262.7084 13.12443164232301
ONEWEB-0124             
1 47270U 20100N   25286.34047975 -.00000313  00000+0 -90534-3 0  9997
2 47270  87.8960  39.7211 0001509 101.1535 258.9763 13.12442465232193
ONEWEB-0125             
1 47271U 20100P   25286.31776778  .00000363  00000+0  97396-3 0  9991
2 47271  87.8957  39.6878 0001582  91.5376 268.5934 13.12443295232250
ONEWEB-0126             
1 47272U 20100Q   25286.33899831 -.00000252  00000+0 -73484-3 0  9991
2 47272  87.8961  39.7070 0001803 100.5160 259.6172 13.12441768232325
ONEWEB-0127             
1 47273U 20100R   25286.30479588  .00000473  00000+0  12781-2 0  9997
2 47273  87.8958  39.7247 0001873 102.7563 257.3775 13.12444273232346
